start=new Date('2022-06-14T00:00:00.000Z').valueOf();
sats=[{"APOAPSIS":"548.229","OBJECT_NAME":"STARLINK-2149","TLE_LINE1":"1 47738U 21017S   22164.59569766  .00002437  00000-0  18238-3 0  9999","RCS_SIZE":"LARGE","EPOCH":"2022-06-13T14:17:48.277824","RA_OF_ASC_NODE":"210.0337","PERIAPSIS":"546.117","MEAN_ANOMALY":"301.2214","CLASSIFICATION_TYPE":"U","ECCENTRICITY":"0.00015250","REV_AT_EPOCH":"7216","ARG_OF_PERICENTER":"58.8924","CENTER_NAME":"EARTH","MEAN_MOTION":"15.06413211","MEAN_ELEMENT_THEORY":"SGP4","GP_ID":"206059826","BSTAR":"0.00018238000000","SEMIMAJOR_AXIS":"6925.308","NORAD_CAT_ID":"47738","FILE":"3494620","MEAN_MOTION_DDOT":"0.0000000000000","OBJECT_ID":"2021-017S","INCLINATION":"53.0520","LAUNCH_DATE":"2021-03-04","PERIOD":"95.591","MEAN_MOTION_DOT":"0.00002437","TIME_SYSTEM":"UTC","EPHEMERIS_TYPE":"0","SITE":"AFETR","DECAY_DATE":null,"REF_FRAME":"TEME","ELEMENT_SET_NO":"999","OBJECT_TYPE":"PAYLOAD","TLE_LINE2":"2 47738  53.0520 210.0337 0001525  58.8924 301.2214 15.06413211 72164","COUNTRY_CODE":"US"},{"DECAY_DATE":null,"REF_FRAME":"TEME","EPHEMERIS_TYPE":"0","SITE":"AFETR","COUNTRY_CODE":"US","ELEMENT_SET_NO":"999","OBJECT_TYPE":"PAYLOAD","TLE_LINE2":"2 47739  53.0551 235.2740 0001507  65.4666 294.6480 15.06406582 71806","MEAN_MOTION_DDOT":"0.0000000000000","OBJECT_ID":"2021-017T","INCLINATION":"53.0551","SEMIMAJOR_AXIS":"6925.328","NORAD_CAT_ID":"47739","FILE":"3494620","PERIOD":"95.592","MEAN_MOTION_DOT":"0.00000571","TIME_SYSTEM":"UTC","LAUNCH_DATE":"2021-03-04","ARG_OF_PERICENTER":"65.4666","REV_AT_EPOCH":"7180","GP_ID":"206059577","MEAN_ELEMENT_THEORY":"SGP4","BSTAR":"0.00005721000000","CENTER_NAME":"EARTH","MEAN_MOTION":"15.06406582","TLE_LINE1":"1 47739U 21017T   22164.48463233  .00000571  00000-0  57210-4 0  9991","RCS_SIZE":"LARGE","EPOCH":"2022-06-13T11:37:52.233312","RA_OF_ASC_NODE":"235.2740","APOAPSIS":"548.237","OBJECT_NAME":"STARLINK-2150","CLASSIFICATION_TYPE":"U","ECCENTRICITY":"0.00015070","MEAN_ANOMALY":"294.6480","PERIAPSIS":"546.150"},{"ARG_OF_PERICENTER":"61.9212","REV_AT_EPOCH":"7200","BSTAR":"0.00006256000000","MEAN_ELEMENT_THEORY":"SGP4","GP_ID":"206058325","MEAN_MOTION":"15.06404271","CENTER_NAME":"EARTH","RA_OF_ASC_NODE":"220.3522","TLE_LINE1":"1 47740U 21017U   22164.46574582  .00000650  00000-0  62560-4 0  9993","RCS_SIZE":"LARGE","EPOCH":"2022-06-13T11:10:40.438848","OBJECT_NAME":"STARLINK-2152","APOAPSIS":"548.314","ECCENTRICITY":"0.00016080","CLASSIFICATION_TYPE":"U","MEAN_ANOMALY":"298.1940","PERIAPSIS":"546.087","REF_FRAME":"TEME","DECAY_DATE":null,"EPHEMERIS_TYPE":"0","SITE":"AFETR","COUNTRY_CODE":"US","ELEMENT_SET_NO":"999","OBJECT_TYPE":"PAYLOAD","TLE_LINE2":"2 47740  53.0546 220.3522 0001608  61.9212 298.1940 15.06404271 72001","MEAN_MOTION_DDOT":"0.0000000000000","OBJECT_ID":"2021-017U","INCLINATION":"53.0546","SEMIMAJOR_AXIS":"6925.335","NORAD_CAT_ID":"47740","FILE":"3494620","MEAN_MOTION_DOT":"0.00000650","TIME_SYSTEM":"UTC","PERIOD":"95.592","LAUNCH_DATE":"2021-03-04"},{"ECCENTRICITY":"0.00015820","CLASSIFICATION_TYPE":"U","MEAN_ANOMALY":"292.3636","PERIAPSIS":"546.089","RA_OF_ASC_NODE":"220.2873","TLE_LINE1":"1 47741U 21017V   22164.48048376  .00000872  00000-0  77411-4 0  9990","RCS_SIZE":"LARGE","EPOCH":"2022-06-13T11:31:53.796864","OBJECT_NAME":"STARLINK-2154","APOAPSIS":"548.280","BSTAR":"0.00007741100000","MEAN_ELEMENT_THEORY":"SGP4","GP_ID":"206059075","MEAN_MOTION":"15.06409408","CENTER_NAME":"EARTH","REV_AT_EPOCH":"7196","ARG_OF_PERICENTER":"67.7521","MEAN_MOTION_DOT":"0.00000872","TIME_SYSTEM":"UTC","PERIOD":"95.592","LAUNCH_DATE":"2021-03-04","MEAN_MOTION_DDOT":"0.0000000000000","OBJECT_ID":"2021-017V","INCLINATION":"53.0544","SEMIMAJOR_AXIS":"6925.320","FILE":"3494620","NORAD_CAT_ID":"47741","COUNTRY_CODE":"US","ELEMENT_SET_NO":"999","OBJECT_TYPE":"PAYLOAD","TLE_LINE2":"2 47741  53.0544 220.2873 0001582  67.7521 292.3636 15.06409408 71965","REF_FRAME":"TEME","DECAY_DATE":null,"EPHEMERIS_TYPE":"0","SITE":"AFETR"},{"ELEMENT_SET_NO":"999","OBJECT_TYPE":"PAYLOAD","TLE_LINE2":"2 47742  53.0531 210.5312 0001566  59.4953 300.6190 15.06404522 72142","COUNTRY_CODE":"US","EPHEMERIS_TYPE":"0","SITE":"AFETR","DECAY_DATE":null,"REF_FRAME":"TEME","LAUNCH_DATE":"2021-03-04","PERIOD":"95.592","MEAN_MOTION_DOT":"0.00000727","TIME_SYSTEM":"UTC","SEMIMAJOR_AXIS":"6925.335","NORAD_CAT_ID":"47742","FILE":"3494620","MEAN_MOTION_DDOT":"0.0000000000000","OBJECT_ID":"2021-017W","INCLINATION":"53.0531","CENTER_NAME":"EARTH","MEAN_MOTION":"15.06404522","MEAN_ELEMENT_THEORY":"SGP4","GP_ID":"206059327","BSTAR":"0.00006767700000","ARG_OF_PERICENTER":"59.4953","REV_AT_EPOCH":"7214","MEAN_ANOMALY":"300.6190","PERIAPSIS":"546.115","CLASSIFICATION_TYPE":"U","ECCENTRICITY":"0.00015660","APOAPSIS":"548.284","OBJECT_NAME":"STARLINK-2156","TLE_LINE1":"1 47742U 21017W   22164.42611961  .00000727  00000-0  67677-4 0  9993","RCS_SIZE":"LARGE","EPOCH":"2022-06-13T10:13:36.734304","RA_OF_ASC_NODE":"210.5312"},{"BSTAR":"0.00007044300000","MEAN_ELEMENT_THEORY":"SGP4","GP_ID":"206030897","MEAN_MOTION":"15.06406778","CENTER_NAME":"EARTH","ARG_OF_PERICENTER":"56.6705","REV_AT_EPOCH":"7146","ECCENTRICITY":"0.00016340","CLASSIFICATION_TYPE":"U","MEAN_ANOMALY":"303.4440","PERIAPSIS":"546.061","RA_OF_ASC_NODE":"210.4209","TLE_LINE1":"1 47743U 21017X   22164.45192082  .00000768  00000-0  70443-4 0  9995","RCS_SIZE":"LARGE","EPOCH":"2022-06-13T10:50:45.958848","OBJECT_NAME":"STARLINK-2157","APOAPSIS":"548.324","COUNTRY_CODE":"US","ELEMENT_SET_NO":"999","OBJECT_TYPE":"PAYLOAD","TLE_LINE2":"2 47743  53.0544 210.4209 0001634  56.6705 303.4440 15.06406778 71469","REF_FRAME":"TEME","DECAY_DATE":null,"EPHEMERIS_TYPE":"0","SITE":"AFETR","MEAN_MOTION_DOT":"0.00000768","TIME_SYSTEM":"UTC","PERIOD":"95.592","LAUNCH_DATE":"2021-03-04","MEAN_MOTION_DDOT":"0.0000000000000","OBJECT_ID":"2021-017X","INCLINATION":"53.0544","SEMIMAJOR_AXIS":"6925.328","NORAD_CAT_ID":"47743","FILE":"3494362"},{"CLASSIFICATION_TYPE":"U","ECCENTRICITY":"0.00013450","MEAN_ANOMALY":"302.5549","PERIAPSIS":"544.788","TLE_LINE1":"1 47744U 21017Y   22164.82722437  .00051319  00000-0  33942-2 0  9999","RCS_SIZE":"LARGE","EPOCH":"2022-06-13T19:51:12.185568","RA_OF_ASC_NODE":"208.7291","APOAPSIS":"546.650","OBJECT_NAME":"STARLINK-2158","MEAN_ELEMENT_THEORY":"SGP4","GP_ID":"206065920","BSTAR":"0.00339420000000","CENTER_NAME":"EARTH","MEAN_MOTION":"15.06887748","ARG_OF_PERICENTER":"57.5571","REV_AT_EPOCH":"7152","PERIOD":"95.561","MEAN_MOTION_DOT":"0.00051319","TIME_SYSTEM":"UTC","LAUNCH_DATE":"2021-03-04","MEAN_MOTION_DDOT":"0.0000000000000","OBJECT_ID":"2021-017Y","INCLINATION":"53.0521","SEMIMAJOR_AXIS":"6923.854","NORAD_CAT_ID":"47744","FILE":"3494803","COUNTRY_CODE":"US","ELEMENT_SET_NO":"999","TLE_LINE2":"2 47744  53.0521 208.7291 0001345  57.5571 302.5549 15.06887748 71523","OBJECT_TYPE":"PAYLOAD","DECAY_DATE":null,"REF_FRAME":"TEME","EPHEMERIS_TYPE":"0","SITE":"AFETR"},{"TLE_LINE1":"1 47745U 21017Z   22164.52472414 -.00000679  00000-0 -26718-4 0  9994","RCS_SIZE":"LARGE","EPOCH":"2022-06-13T12:35:36.165696","RA_OF_ASC_NODE":"220.0793","APOAPSIS":"548.181","OBJECT_NAME":"STARLINK-2159","CLASSIFICATION_TYPE":"U","ECCENTRICITY":"0.00013820","PERIAPSIS":"546.267","MEAN_ANOMALY":"286.3365","REV_AT_EPOCH":"7196","ARG_OF_PERICENTER":"73.7776","MEAN_ELEMENT_THEORY":"SGP4","GP_ID":"206058576","BSTAR":"-0.00002671800000","CENTER_NAME":"EARTH","MEAN_MOTION":"15.06396465","MEAN_MOTION_DDOT":"0.0000000000000","OBJECT_ID":"2021-017Z","INCLINATION":"53.0530","SEMIMAJOR_AXIS":"6925.359","NORAD_CAT_ID":"47745","FILE":"3494620","PERIOD":"95.592","MEAN_MOTION_DOT":"-0.00000679","TIME_SYSTEM":"UTC","LAUNCH_DATE":"2021-03-04","DECAY_DATE":null,"REF_FRAME":"TEME","EPHEMERIS_TYPE":"0","SITE":"AFETR","COUNTRY_CODE":"US","ELEMENT_SET_NO":"999","TLE_LINE2":"2 47745  53.0530 220.0793 0001382  73.7776 286.3365 15.06396465 71960","OBJECT_TYPE":"PAYLOAD"},{"MEAN_ANOMALY":"298.0690","PERIAPSIS":"546.115","CLASSIFICATION_TYPE":"U","ECCENTRICITY":"0.00015890","APOAPSIS":"548.315","OBJECT_NAME":"STARLINK-2160","TLE_LINE1":"1 47746U 21017AA  22164.45099956 -.00000720  00000-0 -29418-4 0  9990","RCS_SIZE":"LARGE","EPOCH":"2022-06-13T10:49:26.361984","RA_OF_ASC_NODE":"220.4191","CENTER_NAME":"EARTH","MEAN_MOTION":"15.06399527","GP_ID":"206059827","MEAN_ELEMENT_THEORY":"SGP4","BSTAR":"-0.00002941800000","ARG_OF_PERICENTER":"62.0460","REV_AT_EPOCH":"7194","LAUNCH_DATE":"2021-03-04","PERIOD":"95.592","MEAN_MOTION_DOT":"-0.00000720","TIME_SYSTEM":"UTC","SEMIMAJOR_AXIS":"6925.350","NORAD_CAT_ID":"47746","FILE":"3494620","MEAN_MOTION_DDOT":"0.0000000000000","OBJECT_ID":"2021-017AA","INCLINATION":"53.0552","ELEMENT_SET_NO":"999","TLE_LINE2":"2 47746  53.0552 220.4191 0001589  62.0460 298.0690 15.06399527 71942","OBJECT_TYPE":"PAYLOAD","COUNTRY_CODE":"US","EPHEMERIS_TYPE":"0","SITE":"AFETR","DECAY_DATE":null,"REF_FRAME":"TEME"},{"LAUNCH_DATE":"2021-03-04","TIME_SYSTEM":"UTC","MEAN_MOTION_DOT":"0.00000905","PERIOD":"95.592","NORAD_CAT_ID":"47747","FILE":"3494620","SEMIMAJOR_AXIS":"6925.358","INCLINATION":"53.0540","OBJECT_ID":"2021-017AB","MEAN_MOTION_DDOT":"0.0000000000000","OBJECT_TYPE":"PAYLOAD","TLE_LINE2":"2 47747  53.0540 210.4239 0001876  60.3681 299.7495 15.06396833 72126","ELEMENT_SET_NO":"999","COUNTRY_CODE":"US","SITE":"AFETR","EPHEMERIS_TYPE":"0","REF_FRAME":"TEME","DECAY_DATE":null,"PERIAPSIS":"545.924","MEAN_ANOMALY":"299.7495","ECCENTRICITY":"0.00018760","CLASSIFICATION_TYPE":"U","OBJECT_NAME":"STARLINK-2161","APOAPSIS":"548.522","RA_OF_ASC_NODE":"210.4239","EPOCH":"2022-06-13T10:45:27.820224","RCS_SIZE":"LARGE","TLE_LINE1":"1 47747U 21017AB  22164.44823866  .00000905  00000-0  79641-4 0  9991","MEAN_MOTION":"15.06396833","CENTER_NAME":"EARTH","BSTAR":"0.00007964100000","GP_ID":"206059578","MEAN_ELEMENT_THEORY":"SGP4","REV_AT_EPOCH":"7212","ARG_OF_PERICENTER":"60.3681"}];
